ONEWEB-0035             
1 45143U 20008N   26049.04220209 -.00000366  00000+0 -10862-2 0  9992
2 45143  87.8747  60.0160 0001879  93.3317 266.8025 13.10370762292332
ONEWEB-0036             
1 45144U 20008P   26049.03384294  .00000047  00000+0  10061-3 0  9993
2 45144  87.8756  59.9826 0001837  83.2007 276.9329 13.09811050292761
ONEWEB-0038             
1 45145U 20008Q   26048.99332287 -.00000061  00000+0 -20754-3 0  9991
2 45145  87.8835  44.7727 0000901 154.1818 205.9355 13.11414999294702
ONEWEB-0039             
1 45146U 20008R   26049.01483130  .00000684  00000+0  19232-2 0  9997
2 45146  87.8763  60.0030 0001532  74.9860 285.1437 13.10372613292555
ONEWEB-0040             
1 45147U 20008S   26049.08455032  .00000561  00000+0  15713-2 0  9999
2 45147  87.8752  60.0078 0001749  91.6394 268.4934 13.10374044292268
ONEWEB-0043             
1 45149U 20008U   26049.08620877  .00000552  00000+0  15459-2 0  9999
2 45149  87.8759  59.9892 0001583  71.1124 289.0175 13.10373565292586
ONEWEB-0044             
1 45150U 20008V   26048.50354383 -.00000350  00000+0 -10384-2 0  9993
2 45150  87.8755  60.1011 0001694  85.4420 274.6901 13.10369075292804
ONEWEB-0045             
1 45151U 20008W   26048.98809137  .00000188  00000+0  49530-3 0  9991
2 45151  87.8838  44.7606 0001716  84.6058 275.5266 13.11417157294787
ONEWEB-0047             
1 45152U 20008X   26049.03141964  .00000161  00000+0  42358-3 0  9998
2 45152  87.8745  59.9998 0001798  90.0949 270.0385 13.10371195292596
ONEWEB-0048             
1 45153U 20008Y   26049.02644546  .00000412  00000+0  11448-2 0  9996
2 45153  87.8747  60.0284 0001832  91.8286 268.3051 13.10369867292203
ONEWEB-0049             
1 45154U 20008Z   26049.02962445  .00000259  00000+0  70605-3 0  9998
2 45154  87.8743  60.0160 0002113  79.0174 281.1191 13.10371093292426
ONEWEB-0051             
1 45155U 20008AA  26049.21529511  .00000310  00000+0  83800-3 0  9992
2 45155  87.8833  44.7290 0001814  87.4814 272.6521 13.11415736295497
ONEWEB-0052             
1 45156U 20008AB  26049.02396286  .00000522  00000+0  14587-2 0  9993
2 45156  87.8756  59.9843 0002127  77.8186 282.3179 13.10370984292338
ONEWEB-0053             
1 45157U 20008AC  26049.08288724  .00000412  00000+0  11429-2 0  9997
2 45157  87.8756  60.0133 0001761  73.0371 287.0950 13.10373793292319
ONEWEB-0054             
1 45158U 20008AD  26049.04136992 -.00000305  00000+0 -90991-3 0  9998
2 45158  87.8752  59.9957 0001917  88.0485 272.0862 13.10369411292422
ONEWEB-0056             
1 45159U 20008AE  26049.09865998  .00000482  00000+0  13453-2 0  9990
2 45159  87.8756  59.9841 0002035  88.7978 271.3383 13.10371000292589
ONEWEB-0057             
1 45160U 20008AF  26049.02990106  .00000263  00000+0  71677-3 0  9995
2 45160  87.8748  60.0083 0001834  82.1670 277.9666 13.10369324292746
