[{"OBJECT_NAME":"ONEWEB-0035","OBJECT_ID":"2020-008N","EPOCH":"2026-02-18T01:00:46.260576","MEAN_MOTION":13.10370762,"ECCENTRICITY":0.0001879,"INCLINATION":87.8747,"RA_OF_ASC_NODE":60.016,"ARG_OF_PERICENTER":93.3317,"MEAN_ANOMALY":266.8025,"EPHEMERIS_TYPE":0,"CLASSIFICATION_TYPE":"U","NORAD_CAT_ID":45143,"ELEMENT_SET_NO":999,"REV_AT_EPOCH":29233,"BSTAR":-0.0010861983,"MEAN_MOTION_DOT":-3.66e-6,"MEAN_MOTION_DDOT":0},{"OBJECT_NAME":"ONEWEB-0036","OBJECT_ID":"2020-008P","EPOCH":"2026-02-18T00:48:44.030016","MEAN_MOTION":13.0981105,"ECCENTRICITY":0.00018379,"INCLINATION":87.8756,"RA_OF_ASC_NODE":59.9826,"ARG_OF_PERICENTER":83.2007,"MEAN_ANOMALY":276.9329,"EPHEMERIS_TYPE":0,"CLASSIFICATION_TYPE":"U","NORAD_CAT_ID":45144,"ELEMENT_SET_NO":999,"REV_AT_EPOCH":29276,"BSTAR":0.00010061286,"MEAN_MOTION_DOT":4.7e-7,"MEAN_MOTION_DDOT":0},{"OBJECT_NAME":"ONEWEB-0038","OBJECT_ID":"2020-008Q","EPOCH":"2026-02-17T23:50:23.095968","MEAN_MOTION":13.11414999,"ECCENTRICITY":9.01e-5,"INCLINATION":87.8835,"RA_OF_ASC_NODE":44.7727,"ARG_OF_PERICENTER":154.1818,"MEAN_ANOMALY":205.9355,"EPHEMERIS_TYPE":0,"CLASSIFICATION_TYPE":"U","NORAD_CAT_ID":45145,"ELEMENT_SET_NO":999,"REV_AT_EPOCH":29470,"BSTAR":-0.00020753754,"MEAN_MOTION_DOT":-6.1e-7,"MEAN_MOTION_DDOT":0},{"OBJECT_NAME":"ONEWEB-0039","OBJECT_ID":"2020-008R","EPOCH":"2026-02-18T00:21:21.424320","MEAN_MOTION":13.10372613,"ECCENTRICITY":0.00015329,"INCLINATION":87.8763,"RA_OF_ASC_NODE":60.003,"ARG_OF_PERICENTER":74.986,"MEAN_ANOMALY":285.1437,"EPHEMERIS_TYPE":0,"CLASSIFICATION_TYPE":"U","NORAD_CAT_ID":45146,"ELEMENT_SET_NO":999,"REV_AT_EPOCH":29255,"BSTAR":0.0019231638,"MEAN_MOTION_DOT":6.84e-6,"MEAN_MOTION_DDOT":0},{"OBJECT_NAME":"ONEWEB-0040","OBJECT_ID":"2020-008S","EPOCH":"2026-02-18T02:01:45.147648","MEAN_MOTION":13.10374044,"ECCENTRICITY":0.00017496,"INCLINATION":87.8752,"RA_OF_ASC_NODE":60.0078,"ARG_OF_PERICENTER":91.6394,"MEAN_ANOMALY":268.4934,"EPHEMERIS_TYPE":0,"CLASSIFICATION_TYPE":"U","NORAD_CAT_ID":45147,"ELEMENT_SET_NO":999,"REV_AT_EPOCH":29226,"BSTAR":0.0015712757,"MEAN_MOTION_DOT":5.61e-6,"MEAN_MOTION_DDOT":0},{"OBJECT_NAME":"ONEWEB-0043","OBJECT_ID":"2020-008U","EPOCH":"2026-02-18T02:04:08.437728","MEAN_MOTION":13.10373565,"ECCENTRICITY":0.00015834,"INCLINATION":87.8759,"RA_OF_ASC_NODE":59.9892,"ARG_OF_PERICENTER":71.1124,"MEAN_ANOMALY":289.0175,"EPHEMERIS_TYPE":0,"CLASSIFICATION_TYPE":"U","NORAD_CAT_ID":45149,"ELEMENT_SET_NO":999,"REV_AT_EPOCH":29258,"BSTAR":0.0015459115,"MEAN_MOTION_DOT":5.52e-6,"MEAN_MOTION_DDOT":0},{"OBJECT_NAME":"ONEWEB-0044","OBJECT_ID":"2020-008V","EPOCH":"2026-02-17T12:05:06.186912","MEAN_MOTION":13.10369075,"ECCENTRICITY":0.00016949,"INCLINATION":87.8755,"RA_OF_ASC_NODE":60.1011,"ARG_OF_PERICENTER":85.442,"MEAN_ANOMALY":274.6901,"EPHEMERIS_TYPE":0,"CLASSIFICATION_TYPE":"U","NORAD_CAT_ID":45150,"ELEMENT_SET_NO":999,"REV_AT_EPOCH":29280,"BSTAR":-0.0010383905,"MEAN_MOTION_DOT":-3.5e-6,"MEAN_MOTION_DDOT":0},{"OBJECT_NAME":"ONEWEB-0045","OBJECT_ID":"2020-008W","EPOCH":"2026-02-17T23:42:51.094368","MEAN_MOTION":13.11417157,"ECCENTRICITY":0.0001716,"INCLINATION":87.8838,"RA_OF_ASC_NODE":44.7606,"ARG_OF_PERICENTER":84.6058,"MEAN_ANOMALY":275.5266,"EPHEMERIS_TYPE":0,"CLASSIFICATION_TYPE":"U","NORAD_CAT_ID":45151,"ELEMENT_SET_NO":999,"REV_AT_EPOCH":29478,"BSTAR":0.0004953,"MEAN_MOTION_DOT":1.88e-6,"MEAN_MOTION_DDOT":0},{"OBJECT_NAME":"ONEWEB-0047","OBJECT_ID":"2020-008X","EPOCH":"2026-02-18T00:45:14.656896","MEAN_MOTION":13.10371195,"ECCENTRICITY":0.0001798,"INCLINATION":87.8745,"RA_OF_ASC_NODE":59.9998,"ARG_OF_PERICENTER":90.0949,"MEAN_ANOMALY":270.0385,"EPHEMERIS_TYPE":0,"CLASSIFICATION_TYPE":"U","NORAD_CAT_ID":45152,"ELEMENT_SET_NO":999,"REV_AT_EPOCH":29259,"BSTAR":0.00042358245,"MEAN_MOTION_DOT":1.61e-6,"MEAN_MOTION_DDOT":0},{"OBJECT_NAME":"ONEWEB-0048","OBJECT_ID":"2020-008Y","EPOCH":"2026-02-18T00:38:04.887744","MEAN_MOTION":13.10369867,"ECCENTRICITY":0.00018322,"INCLINATION":87.8747,"RA_OF_ASC_NODE":60.0284,"ARG_OF_PERICENTER":91.8286,"MEAN_ANOMALY":268.3051,"EPHEMERIS_TYPE":0,"CLASSIFICATION_TYPE":"U","NORAD_CAT_ID":45153,"ELEMENT_SET_NO":999,"REV_AT_EPOCH":29220,"BSTAR":0.0011448276,"MEAN_MOTION_DOT":4.12e-6,"MEAN_MOTION_DDOT":0},{"OBJECT_NAME":"ONEWEB-0049","OBJECT_ID":"2020-008Z","EPOCH":"2026-02-18T00:42:39.552480","MEAN_MOTION":13.10371093,"ECCENTRICITY":0.00021137,"INCLINATION":87.8743,"RA_OF_ASC_NODE":60.016,"ARG_OF_PERICENTER":79.0174,"MEAN_ANOMALY":281.1191,"EPHEMERIS_TYPE":0,"CLASSIFICATION_TYPE":"U","NORAD_CAT_ID":45154,"ELEMENT_SET_NO":999,"REV_AT_EPOCH":29242,"BSTAR":0.00070604706,"MEAN_MOTION_DOT":2.59e-6,"MEAN_MOTION_DDOT":0},{"OBJECT_NAME":"ONEWEB-0051","OBJECT_ID":"2020-008AA","EPOCH":"2026-02-18T05:10:01.497504","MEAN_MOTION":13.11415736,"ECCENTRICITY":0.00018149,"INCLINATION":87.8833,"RA_OF_ASC_NODE":44.729,"ARG_OF_PERICENTER":87.4814,"MEAN_ANOMALY":272.6521,"EPHEMERIS_TYPE":0,"CLASSIFICATION_TYPE":"U","NORAD_CAT_ID":45155,"ELEMENT_SET_NO":999,"REV_AT_EPOCH":29549,"BSTAR":0.00083799689,"MEAN_MOTION_DOT":3.1e-6,"MEAN_MOTION_DDOT":0},{"OBJECT_NAME":"ONEWEB-0052","OBJECT_ID":"2020-008AB","EPOCH":"2026-02-18T00:34:30.391104","MEAN_MOTION":13.10370984,"ECCENTRICITY":0.00021278,"INCLINATION":87.8756,"RA_OF_ASC_NODE":59.9843,"ARG_OF_PERICENTER":77.8186,"MEAN_ANOMALY":282.3179,"EPHEMERIS_TYPE":0,"CLASSIFICATION_TYPE":"U","NORAD_CAT_ID":45156,"ELEMENT_SET_NO":999,"REV_AT_EPOCH":29233,"BSTAR":0.0014586758,"MEAN_MOTION_DOT":5.22e-6,"MEAN_MOTION_DDOT":0},{"OBJECT_NAME":"ONEWEB-0053","OBJECT_ID":"2020-008AC","EPOCH":"2026-02-18T01:59:21.457536","MEAN_MOTION":13.10373793,"ECCENTRICITY":0.00017614,"INCLINATION":87.8756,"RA_OF_ASC_NODE":60.0133,"ARG_OF_PERICENTER":73.0371,"MEAN_ANOMALY":287.095,"EPHEMERIS_TYPE":0,"CLASSIFICATION_TYPE":"U","NORAD_CAT_ID":45157,"ELEMENT_SET_NO":999,"REV_AT_EPOCH":29231,"BSTAR":0.0011429425,"MEAN_MOTION_DOT":4.12e-6,"MEAN_MOTION_DDOT":0},{"OBJECT_NAME":"ONEWEB-0054","OBJECT_ID":"2020-008AD","EPOCH":"2026-02-18T00:59:34.361088","MEAN_MOTION":13.10369411,"ECCENTRICITY":0.00019175,"INCLINATION":87.8752,"RA_OF_ASC_NODE":59.9957,"ARG_OF_PERICENTER":88.0485,"MEAN_ANOMALY":272.0862,"EPHEMERIS_TYPE":0,"CLASSIFICATION_TYPE":"U","NORAD_CAT_ID":45158,"ELEMENT_SET_NO":999,"REV_AT_EPOCH":29242,"BSTAR":-0.00090991099,"MEAN_MOTION_DOT":-3.05e-6,"MEAN_MOTION_DDOT":0},{"OBJECT_NAME":"ONEWEB-0056","OBJECT_ID":"2020-008AE","EPOCH":"2026-02-18T02:22:04.222272","MEAN_MOTION":13.10371,"ECCENTRICITY":0.00020358,"INCLINATION":87.8756,"RA_OF_ASC_NODE":59.9841,"ARG_OF_PERICENTER":88.7978,"MEAN_ANOMALY":271.3383,"EPHEMERIS_TYPE":0,"CLASSIFICATION_TYPE":"U","NORAD_CAT_ID":45159,"ELEMENT_SET_NO":999,"REV_AT_EPOCH":29258,"BSTAR":0.0013452875,"MEAN_MOTION_DOT":4.82e-6,"MEAN_MOTION_DDOT":0},{"OBJECT_NAME":"ONEWEB-0057","OBJECT_ID":"2020-008AF","EPOCH":"2026-02-18T00:43:03.451584","MEAN_MOTION":13.10369324,"ECCENTRICITY":0.00018342,"INCLINATION":87.8748,"RA_OF_ASC_NODE":60.0083,"ARG_OF_PERICENTER":82.167,"MEAN_ANOMALY":277.9666,"EPHEMERIS_TYPE":0,"CLASSIFICATION_TYPE":"U","NORAD_CAT_ID":45160,"ELEMENT_SET_NO":999,"REV_AT_EPOCH":29274,"BSTAR":0.00071677219,"MEAN_MOTION_DOT":2.63e-6,"MEAN_MOTION_DDOT":0}]
